{"type": "FeatureCollection", "features": [{"type": "Feature", "properties": {"damname": "\ud3c9\ub9bc", "src": "gee/\uc804\ub310\uc720\uc5ed/\uc804\ub310\uc720\uc5ed.shp"}, "geometry": {"type": "MultiPolygon", "coordinates": [[[[126.68736756217956, 35.31761074726516], [126.68679766175161, 35.31640427759923], [126.6873001901128, 35.31609164609725], [126.68779379467325, 35.3137060455489], [126.68824153977549, 35.312986988441374], [126.68868158713938, 35.312803458046886], [126.6887913682852, 35.31208352282086], [126.69057004299528, 35.310924686678874], [126.691110975199, 35.309388685074005], [126.69145038884791, 35.30900174671035], [126.69255564643254, 35.3086537060243], [126.69197335543294, 35.30625609104715], [126.69145767846867, 35.30560379740792], [126.69145871262498, 35.305331408031385], [126.69176357972589, 35.30513828604721], [126.69293291165523, 35.30272669282133], [126.69264201369397, 35.30220886485926], [126.69245661830914, 35.30208835298533], [126.6926459833103, 35.30116085947343], [126.69279810428536, 35.2996561681205], [126.69350355820904, 35.299260926370344], [126.6939883012071, 35.297655513036524], [126.69412610342732, 35.29695410843502], [126.69437124554356, 35.296160640310106], [126.69399561225576, 35.295716469851286], [126.69347231429208, 35.295604330148336], [126.6934733424123, 35.295331941173096], [126.69325406855012, 35.295239044390705], [126.69281755132658, 35.29451770665827], [126.69162617404196, 35.29386829692985], [126.69084404892239, 35.293704697261596], [126.68999729476235, 35.292769916543705], [126.68985811946848, 35.29234942658859], [126.68835506905263, 35.29222549732154], [126.6872202508512, 35.29153002343236], [126.68711395481134, 35.291349691425495], [126.68645617330633, 35.29107558290016], [126.68623795336956, 35.29071490102976], [126.68440835893364, 35.29058545324914], [126.68261121942443, 35.28935725913575], [126.68156473773746, 35.28913288112053], [126.68129784403096, 35.288268828349985], [126.6808593448224, 35.28808760786835], [126.67811221520118, 35.287900220298], [126.67767372516803, 35.28771898740417], [126.67767478870724, 35.28745121508301], [126.67712333794783, 35.287357398043184], [126.6749309386478, 35.28645120438386], [126.67437950012794, 35.2863573739779], [126.67438057446009, 35.286089601683734], [126.67372178272358, 35.2860878139135], [126.67339174427921, 35.28554674901334], [126.67273405640269, 35.285272567005535], [126.67273515359062, 35.285000177209895], [126.67185823532598, 35.284637672794354], [126.6717519801486, 35.284457327308075], [126.67130643737669, 35.284636163891975], [126.6707598959547, 35.28472700324933], [126.6706110657479, 35.2853267814952], [126.67009781618907, 35.285537746597626], [126.66811582727419, 35.285532288084745], [126.6676736904851, 35.286251289280216], [126.66712715317068, 35.28633749462716], [126.66695057586284, 35.28683100452091], [126.66474864306144, 35.28826532716921], [126.66447517801937, 35.28903557202749], [126.6628253287928, 35.289030951941406], [126.66249873777738, 35.28903003483159], [126.66249760614093, 35.28930242326083], [126.66194541129602, 35.28938859019454], [126.66150544965647, 35.289567407797875], [126.66150431467031, 35.28983979617491], [126.66128322604354, 35.29019466739002], [126.66062326506494, 35.29046519643236], [126.6605098921324, 35.29064493254329], [126.66071798707252, 35.29205364825197], [126.66134500996466, 35.29293261128373], [126.661489668273, 35.29335314985938], [126.66084150473777, 35.293489825978945], [126.6602303209933, 35.29420832098388], [126.6591763492598, 35.29442694150439], [126.65937071165268, 35.29507846322664], [126.65949838825529, 35.29686091240609], [126.65971650543793, 35.29722164248919], [126.66015498558271, 35.29740755683427], [126.66015046253442, 35.298487875541014], [126.66014820201197, 35.29902803662743], [126.66058067493906, 35.29930626693676], [126.66080144305513, 35.30038260617188], [126.66080032452189, 35.300650377465566], [126.65933203707604, 35.30161113504543], [126.6588190419792, 35.301729715897075], [126.65859225692799, 35.302089181930334], [126.65705773933867, 35.30271731296259], [126.65683096322176, 35.30307215990413], [126.65666922856371, 35.3040273759311], [126.65549933282597, 35.30631395917359], [126.65417912440314, 35.306850331675655], [126.65384450749666, 35.30739415034085], [126.65263398893461, 35.30729831985543], [126.65219545439236, 35.307116995810155], [126.65175692071392, 35.306935671078634], [126.65153881437786, 35.30657492727622], [126.65120652147351, 35.306573963046375], [126.65109873572308, 35.30675370494637], [126.6502185759304, 35.30711125634365], [126.64988395031483, 35.30765044729927], [126.64729800435772, 35.30782293714713], [126.64691344947043, 35.30818191867911], [126.64489827296153, 35.30791282121303], [126.64229504423052, 35.30816825694492], [126.64163607795766, 35.30816629428863], [126.64108934610266, 35.30825699720363], [126.63998344906096, 35.30870151764812], [126.64031333550334, 35.309247287447725], [126.63998103207568, 35.309246292309425], [126.63997863438102, 35.30978645035995], [126.63983153981673, 35.30993374686848], [126.63973250942865, 35.31067213700805], [126.63884257743325, 35.31193908390826], [126.64012288703292, 35.31282011580294], [126.64043995199766, 35.31372134065804], [126.64146241174855, 35.31560342923299], [126.64126910384182, 35.31600912972701], [126.63946207122392, 35.31702864818369], [126.64075553250431, 35.3175034357301], [126.64229726297877, 35.31788661277208], [126.64440303410741, 35.31938870373867], [126.644705940288, 35.319680457871314], [126.64488565127594, 35.319805641536156], [126.64488211342378, 35.32061356978815], [126.6452088318782, 35.32061453430462], [126.64531947421314, 35.32107654079099], [126.64619199400961, 35.3225103176432], [126.646849891451, 35.32278464351995], [126.6471474177612, 35.32431829150034], [126.64635979689227, 35.32536860151623], [126.64437427612779, 35.327232537089216], [126.64492395615785, 35.327783560361674], [126.64634814004938, 35.32804168487982], [126.64718579507236, 35.32844580756617], [126.64880724030141, 35.32738870066049], [126.65145053953819, 35.327124010484745], [126.65342328672706, 35.328210047014906], [126.65342212300834, 35.32848243341741], [126.6537545056232, 35.328483392069785], [126.65427451544254, 35.32940363000203], [126.65473574090254, 35.3309007932686], [126.6557192806788, 35.33146224876887], [126.65634877982755, 35.33314455954143], [126.65934172953587, 35.3341780125899], [126.65957057121491, 35.3346911254345], [126.65933150610951, 35.33661102717581], [126.65977296398371, 35.33748023204288], [126.65928096667183, 35.339251679561485], [126.6606363170868, 35.33986031524191], [126.6608307969003, 35.34051183039777], [126.66096196857544, 35.3414817237518], [126.66049868040227, 35.34178050508757], [126.66013971727622, 35.34407402540845], [126.66185196343082, 35.345597778443384], [126.66341127119995, 35.34597150224561], [126.6642402421177, 35.345816853375055], [126.66483447824855, 35.34655719833671], [126.66456596953142, 35.347442866750946], [126.6647084276386, 35.34842201959174], [126.66568904820453, 35.34975900242716], [126.66638458798175, 35.35054117068406], [126.66669525686699, 35.35173315985249], [126.66832538995982, 35.35135910065426], [126.66917116098477, 35.351241398868815], [126.67082449014562, 35.350701166613085], [126.67302583746326, 35.349806913113675], [126.6745689134035, 35.34864306462778], [126.67633341456363, 35.34846316558089], [126.67688144586012, 35.34810453284392], [126.6774340252138, 35.348018301510855], [126.67861643827423, 35.34825692995977], [126.68010683032603, 35.34756377920313], [126.68040686720735, 35.34721370339514], [126.6812301847555, 35.34705892393635], [126.68213133685016, 35.347172116128164], [126.68286395184674, 35.34571515405453], [126.68514338300984, 35.34495938844675], [126.68557386603958, 35.34438342138488], [126.68537151685062, 35.344253621064354], [126.68524110769124, 35.34301136646527], [126.68419145920957, 35.341974449725804], [126.6832493632278, 35.340817772165934], [126.68260567652798, 35.34116232988447], [126.68174879499699, 35.34127086374947], [126.68141848157391, 35.34072982422355], [126.68076595501854, 35.340455700734324], [126.68056562533626, 35.339818052462014], [126.67991529709334, 35.338989916183195], [126.6796471840597, 35.33839825280491], [126.67892900792187, 35.33763456462691], [126.67879548761577, 35.33720484771589], [126.67866196871368, 35.3367751288317], [126.67814057117005, 35.33612276535146], [126.67801028592719, 35.33488050193764], [126.67781568002601, 35.334229014039494], [126.6778167621489, 35.33395662631606], [126.67800745161955, 35.33275677500986], [126.67816097210611, 35.33098434127949], [126.67816740419134, 35.329363866214145], [126.67852134302113, 35.328192150858996], [126.67735543087262, 35.32671165098174], [126.67718988091642, 35.32584324988544], [126.67747278384212, 35.32553468549752], [126.67865865608779, 35.32481764683435], [126.6780944245638, 35.32220303113833], [126.67786403188644, 35.32205929344209], [126.6779998530894, 35.32190268577377], [126.67997873433485, 35.32149246744487], [126.680176823948, 35.32125753780478], [126.68197812051095, 35.32159473219124], [126.683960413523, 35.32030264933719], [126.68546644746574, 35.319789524961514], [126.68612920936911, 35.3188355835588], [126.68711497790184, 35.31883815726996], [126.68736756217956, 35.31761074726516]]], [[[126.6872263554434, 35.31917085734805], [126.68752019589553, 35.31893154743732], [126.68711497790184, 35.31883815726996], [126.6872263554434, 35.31917085734805]]]]}}]}